{
    "links": {
        "self": "http://www.neowsapp.com/rest/v1/neo/3836003?api_key=iIulBulltgU6a56xZRHN4H3l9WmuAYTsLGpBGhQ2"
    },
    "id": "3836003",
    "neo_reference_id": "3836003",
    "name": "(2018 VR1)",
    "designation": "2018 VR1",
    "nasa_jpl_url": "http://ssd.jpl.nasa.gov/sbdb.cgi?sstr=3836003",
    "absolute_magnitude_h": 26.5,
    "estimated_diameter": {
        "kilometers": {
            "estimated_diameter_min": 0.0133215567,
            "estimated_diameter_max": 0.0297879063
        },
        "meters": {
            "estimated_diameter_min": 13.3215566698,
            "estimated_diameter_max": 29.7879062798
        },
        "miles": {
            "estimated_diameter_min": 0.008277629,
            "estimated_diameter_max": 0.0185093411
        },
        "feet": {
            "estimated_diameter_min": 43.7058959846,
            "estimated_diameter_max": 97.7293544391
        }
    },
    "is_potentially_hazardous_asteroid": false,
    "close_approach_data": [
        {
            "close_approach_date": "2018-11-10",
            "close_approach_date_full": "2018-Nov-10 14:19",
            "epoch_date_close_approach": 1541859540000,
            "relative_velocity": {
                "kilometers_per_second": "9.2821879528",
                "kilometers_per_hour": "33415.8766300675",
                "miles_per_hour": "20763.3262316106"
            },
            "miss_distance": {
                "astronomical": "0.0338869275",
                "lunar": "13.1820147975",
                "kilometers": "5069412.174844425",
                "miles": "3149986.658626065"
            },
            "orbiting_body": "Earth"
        }
    ],
    "orbital_data": {
        "orbit_id": "2",
        "orbit_determination_date": "2018-11-09 06:25:59",
        "first_observation_date": "2018-11-03",
        "last_observation_date": "2018-11-09",
        "data_arc_in_days": 6,
        "observations_used": 26,
        "orbit_uncertainty": "8",
        "minimum_orbit_intersection": ".0214596",
        "jupiter_tisserand_invariant": "3.717",
        "epoch_osculation": "2458427.5",
        "eccentricity": ".5154800152157285",
        "semi_major_axis": "1.950463144520144",
        "inclination": "1.519457143456641",
        "ascending_node_longitude": "179.1025845160501",
        "orbital_period": "994.9586899097327",
        "perihelion_distance": ".9450383731051825",
        "perihelion_argument": "264.920729679414",
        "aphelion_distance": "2.955887915935105",
        "perihelion_time": "2458460.667318054423",
        "mean_anomaly": "347.9992660794032",
        "mean_motion": ".3618240673214894",
        "equinox": "J2000",
        "orbit_class": {
            "orbit_class_type": "APO",
            "orbit_class_description": "Near-Earth asteroid orbits which cross the Earth’s orbit similar to that of 1862 Apollo",
            "orbit_class_range": "a (semi-major axis) > 1.0 AU; q (perihelion) < 1.017 AU"
        }
    },
    "is_sentry_object": false
}